{
  "type": "FeatureCollection",
  "features": [
    {
      "type": "Feature",
      "properties": {
        "norad_id": 66955,
        "name": "HULIANWANG DIGUI-116",
        "group": "last-30-days",
        "lat": 15.467148302513086,
        "lon": 161.73817388990446,
        "alt_km": 1004.7056965072843,
        "timestamp": "2025-12-22T04:03:37.889435+00:00",
        "meta_object_name": "HULIANWANG DIGUI-116",
        "meta_object_id": "2025-287C",
        "meta_epoch": "2025-12-20T16:07:29.631072",
        "meta_mean_motion": 13.67009251,
        "meta_eccentricity": 0.00086607,
        "meta_inclination": 86.4918,
        "meta_ra_of_asc_node": 343.2556,
        "meta_arg_of_pericenter": 174.268,
        "meta_mean_anomaly": 185.8579,
        "meta_ephemeris_type": 0,
        "meta_classification_type": "U",
        "meta_norad_cat_id": 66955,
        "meta_element_set_no": 999,
        "meta_rev_at_epoch": 161,
        "meta_bstar": 0.00012368885,
        "meta_mean_motion_dot": 1.2e-06,
        "meta_mean_motion_ddot": 0,
        "tle_line1": "1 66955U 25287C   25354.67187073  .00000120  00000+0  12369-3 0  9999",
        "tle_line2": "2 66955  86.4918 343.2556 0008660 174.2680 185.8579 13.67009251  1610"
      },
      "geometry": {
        "type": "Point",
        "coordinates": [
          161.73817388990446,
          15.467148302513086
        ]
      }
    },
    {
      "type": "Feature",
      "properties": {
        "norad_id": 66956,
        "name": "HULIANWANG DIGUI-117",
        "group": "last-30-days",
        "lat": 2.2175524354770375,
        "lon": 162.5861372945636,
        "alt_km": 1004.6962732967977,
        "timestamp": "2025-12-22T04:03:37.889445+00:00",
        "meta_object_name": "HULIANWANG DIGUI-117",
        "meta_object_id": "2025-287D",
        "meta_epoch": "2025-12-18T14:55:12.079776",
        "meta_mean_motion": 13.67770338,
        "meta_eccentricity": 0.00076767,
        "meta_inclination": 86.4971,
        "meta_ra_of_asc_node": 344.0126,
        "meta_arg_of_pericenter": 176.3616,
        "meta_mean_anomaly": 183.76,
        "meta_ephemeris_type": 0,
        "meta_classification_type": "U",
        "meta_norad_cat_id": 66956,
        "meta_element_set_no": 999,
        "meta_rev_at_epoch": 133,
        "meta_bstar": 1.0922436e-05,
        "meta_mean_motion_dot": 2.6e-07,
        "meta_mean_motion_ddot": 0,
        "tle_line1": "1 66956U 25287D   25352.62166759  .00000026  00000+0  10922-4 0  9990",
        "tle_line2": "2 66956  86.4971 344.0126 0007676 176.3616 183.7600 13.67770338  1332"
      },
      "geometry": {
        "type": "Point",
        "coordinates": [
          162.5861372945636,
          2.2175524354770375
        ]
      }
    },
    {
      "type": "Feature",
      "properties": {
        "norad_id": 66957,
        "name": "HULIANWANG DIGUI-118",
        "group": "last-30-days",
        "lat": -1.1688989756929797,
        "lon": 162.7892917296087,
        "alt_km": 1007.698996297403,
        "timestamp": "2025-12-22T04:03:37.889455+00:00",
        "meta_object_name": "HULIANWANG DIGUI-118",
        "meta_object_id": "2025-287E",
        "meta_epoch": "2025-12-21T00:50:13.849728",
        "meta_mean_motion": 13.6751011,
        "meta_eccentricity": 0.00054729,
        "meta_inclination": 86.4946,
        "meta_ra_of_asc_node": 343.1304,
        "meta_arg_of_pericenter": 170.9065,
        "meta_mean_anomaly": 189.2194,
        "meta_ephemeris_type": 0,
        "meta_classification_type": "U",
        "meta_norad_cat_id": 66957,
        "meta_element_set_no": 999,
        "meta_rev_at_epoch": 166,
        "meta_bstar": 0.00013223305,
        "meta_mean_motion_dot": 1.28e-06,
        "meta_mean_motion_ddot": 0,
        "tle_line1": "1 66957U 25287E   25355.03488252  .00000128  00000+0  13223-3 0  9993",
        "tle_line2": "2 66957  86.4946 343.1304 0005472 170.9065 189.2194 13.67510110  1668"
      },
      "geometry": {
        "type": "Point",
        "coordinates": [
          162.7892917296087,
          -1.1688989756929797
        ]
      }
    },
    {
      "type": "Feature",
      "properties": {
        "norad_id": 66958,
        "name": "CZ-6A R/B",
        "group": "last-30-days",
        "lat": -12.303658947171346,
        "lon": -18.247584558238422,
        "alt_km": 909.5795345088663,
        "timestamp": "2025-12-22T04:03:37.889465+00:00",
        "meta_object_name": "CZ-6A R/B",
        "meta_object_id": "2025-287F",
        "meta_epoch": "2025-12-21T14:20:48.026976",
        "meta_mean_motion": 13.94921167,
        "meta_eccentricity": 0.01072434,
        "meta_inclination": 86.5061,
        "meta_ra_of_asc_node": 342.733,
        "meta_arg_of_pericenter": 75.5233,
        "meta_mean_anomaly": 285.7811,
        "meta_ephemeris_type": 0,
        "meta_classification_type": "U",
        "meta_norad_cat_id": 66958,
        "meta_element_set_no": 999,
        "meta_rev_at_epoch": 177,
        "meta_bstar": 4.6632226e-05,
        "meta_mean_motion_dot": 8.5e-07,
        "meta_mean_motion_ddot": 0,
        "tle_line1": "1 66958U 25287F   25355.59777809  .00000085  00000+0  46632-4 0  9997",
        "tle_line2": "2 66958  86.5061 342.7330 0107243  75.5233 285.7811 13.94921167  1776"
      },
      "geometry": {
        "type": "Point",
        "coordinates": [
          -18.247584558238422,
          -12.303658947171346
        ]
      }
    },
    {
      "type": "Feature",
      "properties": {
        "norad_id": 66959,
        "name": "STARLINK-35887",
        "group": "last-30-days",
        "lat": 37.11218090841627,
        "lon": -124.80485601798895,
        "alt_km": 337.44251829599943,
        "timestamp": "2025-12-22T04:03:37.889477+00:00",
        "meta_object_name": "STARLINK-35887",
        "meta_object_id": "2025-288A",
        "meta_epoch": "2025-12-21T20:00:01.999008",
        "meta_mean_motion": 15.7685508,
        "meta_eccentricity": 0.0002047,
        "meta_inclination": 43.0007,
        "meta_ra_of_asc_node": 111.5248,
        "meta_arg_of_pericenter": 274.9658,
        "meta_mean_anomaly": 94.5683,
        "meta_ephemeris_type": 0,
        "meta_classification_type": "U",
        "meta_norad_cat_id": 66959,
        "meta_element_set_no": 999,
        "meta_rev_at_epoch": 329,
        "meta_bstar": -0.0085324,
        "meta_mean_motion_dot": -0.01275434,
        "meta_mean_motion_ddot": 0,
        "tle_line1": "1 66959U 25288A   25355.83335647 -.01275434  00000+0 -85324-2 0  9990",
        "tle_line2": "2 66959  43.0007 111.5248 0002047 274.9658  94.5683 15.76855080  3291"
      },
      "geometry": {
        "type": "Point",
        "coordinates": [
          -124.80485601798895,
          37.11218090841627
        ]
      }
    },
    {
      "type": "Feature",
      "properties": {
        "norad_id": 66960,
        "name": "STARLINK-35879",
        "group": "last-30-days",
        "lat": 36.31903124640121,
        "lon": -122.59876317399018,
        "alt_km": 337.57470012650356,
        "timestamp": "2025-12-22T04:03:37.889487+00:00",
        "meta_object_name": "STARLINK-35879",
        "meta_object_id": "2025-288B",
        "meta_epoch": "2025-12-21T20:00:01.999008",
        "meta_mean_motion": 15.76844519,
        "meta_eccentricity": 0.0001936,
        "meta_inclination": 43.0007,
        "meta_ra_of_asc_node": 111.5203,
        "meta_arg_of_pericenter": 279.6593,
        "meta_mean_anomaly": 91.8294,
        "meta_ephemeris_type": 0,
        "meta_classification_type": "U",
        "meta_norad_cat_id": 66960,
        "meta_element_set_no": 999,
        "meta_rev_at_epoch": 329,
        "meta_bstar": -0.0086069,
        "meta_mean_motion_dot": -0.01284821,
        "meta_mean_motion_ddot": 0,
        "tle_line1": "1 66960U 25288B   25355.83335647 -.01284821  00000+0 -86069-2 0  9999",
        "tle_line2": "2 66960  43.0007 111.5203 0001936 279.6593  91.8294 15.76844519  3293"
      },
      "geometry": {
        "type": "Point",
        "coordinates": [
          -122.59876317399018,
          36.31903124640121
        ]
      }
    },
    {
      "type": "Feature",
      "properties": {
        "norad_id": 66961,
        "name": "STARLINK-35761",
        "group": "last-30-days",
        "lat": 35.478940261512186,
        "lon": -120.42135844275472,
        "alt_km": 337.7778409395887,
        "timestamp": "2025-12-22T04:03:37.889497+00:00",
        "meta_object_name": "STARLINK-35761",
        "meta_object_id": "2025-288C",
        "meta_epoch": "2025-12-21T20:00:01.999008",
        "meta_mean_motion": 15.76815171,
        "meta_eccentricity": 0.0001974,
        "meta_inclination": 43.0007,
        "meta_ra_of_asc_node": 111.5149,
        "meta_arg_of_pericenter": 273.7217,
        "meta_mean_anomaly": 99.7691,
        "meta_ephemeris_type": 0,
        "meta_classification_type": "U",
        "meta_norad_cat_id": 66961,
        "meta_element_set_no": 999,
        "meta_rev_at_epoch": 329,
        "meta_bstar": -0.0087396,
        "meta_mean_motion_dot": -0.01301073,
        "meta_mean_motion_ddot": 0,
        "tle_line1": "1 66961U 25288C   25355.83335647 -.01301073  00000+0 -87396-2 0  9993",
        "tle_line2": "2 66961  43.0007 111.5149 0001974 273.7217  99.7691 15.76815171  3293"
      },
      "geometry": {
        "type": "Point",
        "coordinates": [
          -120.42135844275472,
          35.478940261512186
        ]
      }
    }
  ]
}